IRIDIUM 112             
1 41925U 17003J   25139.56933126  .00000030  00000+0  37117-5 0  9993
2 41925  86.3966 252.7262 0002129  94.1639 265.9800 14.34217835436857
IRIDIUM 111             
1 41926U 17003K   25139.55664660  .00000056  00000+0  12870-4 0  9993
2 41926  86.3968 252.7935 0002344  98.4254 261.7207 14.34217975436902
IRIDIUM 113             
1 42803U 17039A   25139.46684110  .00000047  00000+0  96104-5 0  9992
2 42803  86.3949 126.7620 0002051  89.7439 270.3992 14.34217469414754
IRIDIUM 123             
1 42804U 17039B   25139.78739288  .00000125  00000+0  37582-4 0  9996
2 42804  86.3981 158.0789 0002584  97.1587 262.9902 14.34218808413567
IRIDIUM 120             
1 42805U 17039C   25139.66981477  .00000180  00000+0  57272-4 0  9992
2 42805  86.3939 126.5106 0002686  87.5835 272.5668 14.34217829414778
IRIDIUM 115             
1 42806U 17039D   25139.45807275  .00000204  00000+0  54611-4 0  9994
2 42806  86.4477 126.6738 0002913 100.2324 259.9206 14.43278936417471
IRIDIUM 118             
1 42807U 17039E   25139.54003359  .00000020  00000+0 -96568-7 0  9993
2 42807  86.3985 158.1819 0002122  90.7426 269.4013 14.34217426413524
IRIDIUM 117             
1 42808U 17039F   25139.76836747  .00000019  00000+0 -15194-6 0  9996
2 42808  86.3979 158.0481 0002392  98.6154 261.5313 14.34217427413590
